TDRS 3                  
1 19548U 88091B   22336.44832138 -.00000304  00000+0  00000+0 0  9998
2 19548  13.5928 350.0212 0038746 328.1578 225.7012  1.00268234112405
HST                     
1 20580U 90037B   22336.87486571  .00002045  00000+0  10761-3 0  9994
2 20580  28.4686 132.2502 0002780  58.5807  66.9043 15.11334877591975
TDRS 5                  
1 21639U 91054B   22336.78343920  .00000081  00000+0  00000+0 0  9999
2 21639  14.2249   3.3388 0023891 351.6532 191.0641  1.00277975114756
TDRS 6                  
1 22314U 93003B   22336.51897701 -.00000299  00000+0  00000+0 0  9990
2 22314  14.1417   6.5967 0008303 144.8776  60.6298  1.00279451109411
TDRS 7                  
1 23613U 95035B   22337.04903081 -.00000206  00000+0  00000+0 0  9996
2 23613  13.9137 357.2959 0023798  52.3890 124.6232  1.00275390100195
ISS (ZARYA)             
1 25544U 98067A   22337.62853352  .00021662  00000+0  39010-3 0  9993
2 25544  51.6431 217.1918 0004457 123.2790 278.7935 15.49729713371465
LANDSAT 7               
1 25682U 99020A   22337.45876833  .00000265  00000+0  64548-4 0  9997
2 25682  97.9576  18.9691 0001150  70.8384 289.2941 14.59846684257227
TERRA                   
1 25994U 99068A   22337.46714380  .00000298  00000+0  73286-4 0  9999
2 25994  98.1204  45.4873 0001188  16.3141 354.9913 14.58927653221245
TDRS 8                  
1 26388U 00034A   22336.85183032 -.00000236  00000+0  00000+0 0  9990
2 26388  10.6329  41.3825 0017550 331.7496  94.6230  1.00274060 82222
TIMED                   
1 26998U 01055B   22337.37600139  .00000804  00000+0  89446-4 0  9997
2 26998  74.0718 303.0427 0001339 235.5166 124.5889 14.88974558138284
TDRS 9                  
1 27389U 02011A   22337.22774274 -.00000286  00000+0  00000+0 0  9990
2 27389   9.3784  59.2732 0025327 293.9607  98.5570  1.00275351 77489
AQUA                    
1 27424U 02022A   22337.46608125  .00000572  00000+0  13607-3 0  9997
2 27424  98.2659 277.9000 0001935  72.0258  39.3465 14.57492777 94845
TDRS 10                 
1 27566U 02055A   22336.85447863  .00000090  00000+0  00000+0 0  9996
2 27566   8.5108  49.0038 0004828 314.7046 204.4118  1.00270491 73263
SORCE                   
1 27651U 03004A   22337.08822274  .00001275  00000+0  14179-3 0  9997
2 27651  39.9968 355.5671 0023220 220.8824 139.0224 14.90451973 78250
AURA                    
1 28376U 04026A   22336.80559240  .00000557  00000+0  13370-3 0  9990
2 28376  98.2280 277.8470 0001223  90.1442 269.9896 14.57084830977743
SWIFT                   
1 28485U 04047A   22336.98776368  .00003571  00000+0  19809-3 0  9997
2 28485  20.5558 206.3187 0010087 277.7495  82.1794 15.07652088989085
THEMIS A                
1 30580U 07004A   22336.34346193 -.00000026  00000+0  41072-3 0  9991
2 30580  12.7642 327.4535 8358357 200.6863 153.6966  0.87833935 29916
THEMIS D                
1 30797U 07004D   22337.27923344 -.00000091  00000+0  00000+0 0  9997
2 30797   8.6371 315.5787 8310853 215.9850 101.8077  0.87836307 54136
THEMIS E                
1 30798U 07004E   22337.48224064 -.00000115  00000+0  00000+0 0  9991
2 30798   9.7068 330.8415 8304696 202.6826 156.9203  0.87839795 54556
AIM                     
1 31304U 07015A   22336.83561598  .00008911  00000+0  40667-3 0  9999
2 31304  97.8588 262.6475 0005149 131.3093 228.8585 15.20854402856759
FGRST (GLAST)           
1 33053U 08029A   22337.00931001  .00001515  00000+0  67437-4 0  9996
2 33053  25.5824  97.3908 0011651 335.9986  24.0006 15.12733246799466
WISE                    
1 36119U 09071A   22337.53310235  .00006663  00000+0  19261-3 0  9998
2 36119  97.2227   8.6565 0003934  72.1204 288.0469 15.35953136721453
TDRS 11                 
1 39070U 13004A   22336.85386848  .00000079  00000+0  00000+0 0  9997
2 39070   2.8023 351.2180 0003300  63.4841 149.9512  1.00270474 33730
TDRS 12                 
1 39504U 14004A   22337.23684197 -.00000269  00000+0  00000+0 0  9993
2 39504   3.7321 350.4685 0002377 226.5800 259.4234  1.00272760 32494
GPM-CORE                
1 39574U 14009C   22336.83558926  .00018777  00000+0  27023-3 0  9990
2 39574  65.0001 335.1620 0011034 261.0733  98.9164 15.56073768497806
MMS 1                   
1 40482U 15011A   22335.00000000 -.00000029  00000+0  00000+0 0  9991
2 40482  29.8826  91.2973 8885893  68.0655 234.5843  0.28452908 13769
MMS 2                   
1 40483U 15011B   22337.00000000 -.00000037  00000+0  00000+0 0  9993
2 40483  29.8757  90.9666 8886891  68.4316  79.6434  0.28558067 13751
MMS 3                   
1 40484U 15011C   22340.00000000 -.00000462  00000+0  00000+0 0  9990
2 40484  29.8662  90.6966 8884941  68.6795  27.8759  0.28543142 13768
MMS 4                   
1 40485U 15011D   22340.00000000 -.00000462  00000+0  00000+0 0  9991
2 40485  29.8658  90.7068 8886129  68.6684  27.8509  0.28530602 13765
TDRS 13                 
1 42915U 17047A   22336.81455707 -.00000101  00000+0  00000+0 0  9994
2 42915   4.2487 335.2507 0013279 120.2587 257.9229  1.00270548 19429
JPSS-1                  
1 43013U 17073A   22337.45639972  .00000057  00000+0  47804-4 0  9999
2 43013  98.7334 273.4679 0000651  60.0679 300.0562 14.19563184261204
